ONEWEB-0228             
1 48780U 21045P   24192.13169082 -.00000092  00000+0 -27928-3 0  9990
2 48780  87.9017  39.8820 0001869  81.1241 279.0101 13.15069987151367
